NORAD_CAT_ID,OBJECT_NAME,OBJECT_TYPE,EPOCH,MEAN_MOTION,ECCENTRICITY,INCLINATION,RA_OF_ASC_NODE,ARG_OF_PERICENTER,MEAN_ANOMALY,BSTAR,MEAN_MOTION_DOT,MEAN_MOTION_DDOT,TLE_LINE0,TLE_LINE1,TLE_LINE2,SEMIMAJOR_AXIS,PERIOD,APOGEE,PERIGEE,DECAYED
54066.0,STARLINK-5151,PAYLOAD,2023-11-12 22:29:15,15.0884074,0.0001586,53.2164,189.7207,94.2753,265.8421,6.2468e-05,7.06e-06,0.0,0 STARLINK-5151,1 54066U 22136R   23316.93698040  .00000706  00000-0  62468-4 0  9992,2 54066  53.2164 189.7207 0001586  94.2753 265.8421 15.08840740 58860,6917.878,95.438,540.84,538.646,0.0
54066.0,STARLINK-5151,PAYLOAD,2023-11-13 22:20:01,15.08847108,0.0001412,53.2156,185.2613,87.7457,272.3697,0.00015146,2.124e-05,0.0,0 STARLINK-5151,1 54066U 22136R   23317.93057651  .00002124  00000-0  15146-3 0  9996,2 54066  53.2156 185.2613 0001412  87.7457 272.3697 15.08847108 59010,6917.859,95.437,540.7,538.747,0.0
54066.0,STARLINK-5151,PAYLOAD,2023-11-14 01:30:48,15.08848059,0.0001431,53.2156,184.6666,89.1672,270.9484,0.00016223,2.295e-05,0.0,0 STARLINK-5151,1 54066U 22136R   23318.06305558  .00002295  00000-0  16223-3 0  9999,2 54066  53.2156 184.6666 0001431  89.1672 270.9484 15.08848059 59516,6917.856,95.437,540.711,538.731,0.0
54066.0,STARLINK-5151,PAYLOAD,2023-11-14 14:13:53,15.08836644,0.0001762,53.216,182.2878,86.4846,273.6347,2.2993e-05,7.8e-07,0.0,0 STARLINK-5151,1 54066U 22136R   23318.59298112  .00000078  00000-0  22993-4 0  9993,2 54066  53.2160 182.2878 0001762  86.4846 273.6347 15.08836644 59111,6917.891,95.438,540.975,538.537,0.0
54066.0,STARLINK-5151,PAYLOAD,2023-11-14 22:10:49,15.08841064,0.0001759,53.2154,180.8013,87.9593,272.16,2.0503e-05,3.8e-07,0.0,0 STARLINK-5151,1 54066U 22136R   23318.92417854  .00000038  00000-0  20503-4 0  9997,2 54066  53.2154 180.8013 0001759  87.9593 272.1600 15.08841064 59163,6917.877,95.437,540.959,538.525,0.0
54066.0,STARLINK-5151,PAYLOAD,2023-11-15 14:04:40,15.08834038,0.0001808,53.2121,177.8274,92.801,267.3189,5.3722e-05,5.67e-06,0.0,0 STARLINK-5151,1 54066U 22136R   23319.58658292  .00000567  00000-0  53722-4 0  9999,2 54066  53.2121 177.8274 0001808  92.8010 267.3189 15.08834038 59268,6917.899,95.438,541.014,538.513,0.0
54066.0,STARLINK-5151,PAYLOAD,2023-11-15 23:36:59,15.08832825,0.0001819,53.2125,176.0431,92.2628,267.8573,2.9376e-05,1.79e-06,0.0,0 STARLINK-5151,1 54066U 22136R   23319.98402551  .00000179  00000-0  29376-4 0  9995,2 54066  53.2125 176.0431 0001819  92.2628 267.8573 15.08832825 59803,6917.902,95.438,541.026,538.509,0.0
54066.0,STARLINK-5151,PAYLOAD,2023-11-17 07:24:42,15.08838572,0.0001428,53.2148,170.0961,91.4112,268.7044,0.00011712,1.576e-05,0.0,0 STARLINK-5151,1 54066U 22136R   23321.30882654  .00001576  00000-0  11712-3 0  9996,2 54066  53.2148 170.0961 0001428  91.4112 268.7044 15.08838572 60007,6917.885,95.438,540.738,538.762,0.0
54066.0,STARLINK-5151,PAYLOAD,2023-11-17 20:07:47,15.08840696,0.0001381,53.2147,167.717,91.9503,268.1647,0.00010852,1.44e-05,0.0,0 STARLINK-5151,1 54066U 22136R   23321.83874565  .00001440  00000-0  10852-3 0  9990,2 54066  53.2147 167.7170 0001381  91.9503 268.1647 15.08840696 59605,6917.878,95.438,540.699,538.788,0.0
54066.0,STARLINK-5151,PAYLOAD,2023-11-18 13:37:02,15.0884185,0.0001391,53.2142,164.4464,90.0888,270.0263,8.7817e-05,1.11e-05,0.0,0 STARLINK-5151,1 54066U 22136R   23322.56738579  .00001110  00000-0  87817-4 0  9995,2 54066  53.2142 164.4464 0001391  90.0888 270.0263 15.08841850 59718,6917.875,95.437,540.702,538.777,0.0
54066.0,STARLINK-5151,PAYLOAD,2023-11-18 19:58:34,15.08841613,0.0001391,53.2148,163.2567,90.4639,269.6513,7.9582e-05,9.79e-06,0.0,0 STARLINK-5151,1 54066U 22136R   23322.83234598  .00000979  00000-0  79582-4 0  9999,2 54066  53.2148 163.2567 0001391  90.4639 269.6513 15.08841613 60231,6917.875,95.437,540.703,538.778,0.0
54066.0,STARLINK-5151,PAYLOAD,2023-11-19 13:27:48,15.08844657,0.0001398,53.2158,159.9864,88.0598,272.0554,8.2265e-05,1.022e-05,0.0,0 STARLINK-5151,1 54066U 22136R   23323.56098283  .00001022  00000-0  82265-4 0  9991,2 54066  53.2158 159.9864 0001398  88.0598 272.0554 15.08844657 59869,6917.866,95.437,540.698,538.764,0.0
54066.0,STARLINK-5151,PAYLOAD,2023-11-19 19:49:21,15.08846657,0.0001387,53.2165,158.797,88.1213,271.9938,9.3214e-05,1.196e-05,0.0,0 STARLINK-5151,1 54066U 22136R   23323.82594050  .00001196  00000-0  93214-4 0  9991,2 54066  53.2165 158.7970 0001387  88.1213 271.9938 15.08846657 59906,6917.86,95.437,540.685,538.766,0.0
54066.0,STARLINK-5151,PAYLOAD,2023-11-20 00:35:30,15.08845811,0.0001418,53.2162,157.9045,89.7717,270.3437,9.7676e-05,1.267e-05,0.0,0 STARLINK-5151,1 54066U 22136R   23324.02465960  .00001267  00000-0  97676-4 0  9996,2 54066  53.2162 157.9045 0001418  89.7717 270.3437 15.08845811 60414,6917.863,95.437,540.709,538.747,0.0
54066.0,STARLINK-5151,PAYLOAD,2023-11-20 13:18:36,15.08839012,0.000148,53.2159,155.5251,90.9611,269.1551,2.9632e-05,1.84e-06,0.0,0 STARLINK-5151,1 54066U 22136R   23324.55458592  .00000184  00000-0  29632-4 0  9991,2 54066  53.2159 155.5251 0001480  90.9611 269.1551 15.08839012 60014,6917.883,95.438,540.772,538.725,0.0
54066.0,STARLINK-5151,PAYLOAD,2023-11-20 19:40:08,15.08840497,0.0001457,53.2163,154.3359,90.2729,269.843,3.4939e-05,2.68e-06,0.0,0 STARLINK-5151,1 54066U 22136R   23324.81954421  .00000268  00000-0  34939-4 0  9991,2 54066  53.2163 154.3359 0001457  90.2729 269.8430 15.08840497 60531,6917.879,95.438,540.752,538.736,0.0
54066.0,STARLINK-5151,PAYLOAD,2023-11-21 13:09:23,15.08840925,0.0001464,53.2161,151.0649,90.2021,269.9139,1.5553e-05,-4e-07,0.0,0 STARLINK-5151,1 54066U 22136R   23325.54818472 -.00000040  00000-0  15553-4 0  9997,2 54066  53.2161 151.0649 0001464  90.2021 269.9139 15.08840925 60160,6917.878,95.437,540.755,538.73,0.0
54066.0,STARLINK-5151,PAYLOAD,2023-11-21 19:30:55,15.08842814,0.000146,53.2163,149.8755,90.0018,270.1142,2.7332e-05,1.47e-06,0.0,0 STARLINK-5151,1 54066U 22136R   23325.81314317  .00000147  00000-0  27332-4 0  9991,2 54066  53.2163 149.8755 0001460  90.0018 270.1142 15.08842814 60207,6917.872,95.437,540.747,538.727,0.0
54066.0,STARLINK-5151,PAYLOAD,2023-11-22 13:00:10,15.08835093,0.0001417,53.2162,146.6046,90.5822,269.5332,4.1403e-05,3.71e-06,0.0,0 STARLINK-5151,1 54066U 22136R   23326.54178887  .00000371  00000-0  41403-4 0  9996,2 54066  53.2162 146.6046 0001417  90.5822 269.5332 15.08835093 60310,6917.895,95.438,540.741,538.78,0.0
54066.0,STARLINK-5151,PAYLOAD,2023-11-22 19:21:43,15.08832226,0.0001375,53.2167,145.4154,90.1506,269.9644,-8.979e-07,-3.02e-06,0.0,0 STARLINK-5151,1 54066U 22136R   23326.80675268 -.00000302  00000-0 -89790-6 0  9999,2 54066  53.2167 145.4154 0001375  90.1506 269.9644 15.08832226 60832,6917.904,95.438,540.72,538.818,0.0
54066.0,STARLINK-5151,PAYLOAD,2023-11-23 19:12:30,15.08841025,0.0001315,53.2169,140.9549,93.8002,266.314,5.8033e-05,6.36e-06,0.0,0 STARLINK-5151,1 54066U 22136R   23327.80034822  .00000636  00000-0  58033-4 0  9997,2 54066  53.2169 140.9549 0001315  93.8002 266.3140 15.08841025 60982,6917.877,95.437,540.652,538.833,0.0
54066.0,STARLINK-5151,PAYLOAD,2023-11-24 11:06:21,15.08838359,0.0001226,53.2169,137.9811,89.4655,270.6478,0.00012088,1.636e-05,0.0,0 STARLINK-5151,1 54066U 22136R   23328.46274918  .00001636  00000-0  12088-3 0  9992,2 54066  53.2169 137.9811 0001226  89.4655 270.6478 15.08838359 60603,6917.885,95.438,540.599,538.902,0.0
54066.0,STARLINK-5151,PAYLOAD,2023-11-24 19:03:17,15.08842187,0.0001245,53.2171,136.4946,89.1373,270.9761,0.00014899,2.084e-05,0.0,0 STARLINK-5151,1 54066U 22136R   23328.79394726  .00002084  00000-0  14899-3 0  9998,2 54066  53.2171 136.4946 0001245  89.1373 270.9761 15.08842187 60651,6917.874,95.437,540.6,538.877,0.0
54066.0,STARLINK-5151,PAYLOAD,2023-11-25 20:29:26,15.08854978,0.0001452,53.217,131.7368,79.3475,280.7681,0.00017289,2.466e-05,0.0,0 STARLINK-5151,1 54066U 22136R   23329.85377932  .00002466  00000-0  17289-3 0  9996,2 54066  53.2170 131.7368 0001452  79.3475 280.7681 15.08854978 60819,6917.835,95.437,540.704,538.695,0.0
54066.0,STARLINK-5151,PAYLOAD,2023-11-26 13:58:41,15.0885174,0.0001216,53.2165,128.4594,105.2982,254.8145,3.0448e-06,-2.39e-06,0.0,0 STARLINK-5151,1 54066U 22136R   23330.58242048 -.00000239  00000-0  30448-5 0  9998,2 54066  53.2165 128.4594 0001216 105.2982 254.8145 15.08851740 60920,6917.845,95.437,540.551,538.868,0.0
54066.0,STARLINK-5151,PAYLOAD,2023-11-26 17:09:27,15.0885024,0.0001243,53.217,127.865,105.8786,254.2343,4.7856e-06,-2.12e-06,0.0,0 STARLINK-5151,1 54066U 22136R   23330.71490027 -.00000212  00000-0  47856-5 0  9997,2 54066  53.2170 127.8650 0001243 105.8786 254.2343 15.08850240 61424,6917.849,95.437,540.574,538.854,0.0
54066.0,STARLINK-5151,PAYLOAD,2023-11-27 13:49:28,15.08840728,0.000153,53.2174,124.0054,99.3977,260.7188,-4.7433e-05,-1.043e-05,0.0,0 STARLINK-5151,1 54066U 22136R   23331.57602858 -.00001043  00000-0 -47433-4 0  9993,2 54066  53.2174 124.0054 0001530  99.3977 260.7188 15.08840728 61073,6917.878,95.438,540.802,538.685,0.0
54066.0,STARLINK-5151,PAYLOAD,2023-11-27 17:00:15,15.08833634,0.0001297,53.2172,123.4079,68.8935,291.2195,-7.4069e-05,-1.466e-05,0.0,0 STARLINK-5151,1 54066U 22136R   23331.70851450 -.00001466  00000-0 -74069-4 0  9996,2 54066  53.2172 123.4079 0001297  68.8935 291.2195 15.08833634 61576,6917.9,95.438,540.662,538.868,0.0
54066.0,STARLINK-5151,PAYLOAD,2023-11-28 10:29:30,15.08814984,0.0001226,53.2173,120.1419,67.2254,292.8867,0.0001151,1.543e-05,0.0,0 STARLINK-5151,1 54066U 22136R   23332.43716367  .00001543  00000-0  11510-3 0  9999,2 54066  53.2173 120.1419 0001226  67.2254 292.8867 15.08814984 61680,6917.957,95.439,540.67,538.974,0.0
54066.0,STARLINK-5151,PAYLOAD,2023-11-28 13:40:16,15.08832577,0.0001214,53.2183,119.5544,87.1599,272.9532,-3.3029e-05,-8.13e-06,0.0,0 STARLINK-5151,1 54066U 22136R   23332.56964000 -.00000813  00000-0 -33029-4 0  9993,2 54066  53.2183 119.5544 0001214  87.1599 272.9532 15.08832577 61228,6917.903,95.438,540.608,538.928,0.0
